[{"OBJECT_NAME":"QIANFAN-54","OBJECT_ID":"2024-232U","EPOCH":"2026-03-09T22:08:58.177248","MEAN_MOTION":13.5100364,"ECCENTRICITY":0.00028257,"INCLINATION":89.006,"RA_OF_ASC_NODE":32.0905,"ARG_OF_PERICENTER":33.2019,"MEAN_ANOMALY":326.9309,"EPHEMERIS_TYPE":0,"CLASSIFICATION_TYPE":"U","NORAD_CAT_ID":62255,"ELEMENT_SET_NO":999,"REV_AT_EPOCH":11118,"BSTAR":0.00014876579,"MEAN_MOTION_DOT":1.08e-6,"MEAN_MOTION_DDOT":0},{"OBJECT_NAME":"NIMBUS 2 DEB","OBJECT_ID":"1966-040BJ","EPOCH":"2026-03-09T02:20:15.454176","MEAN_MOTION":13.44850609,"ECCENTRICITY":0.00428211,"INCLINATION":100.4132,"RA_OF_ASC_NODE":305.2935,"ARG_OF_PERICENTER":62.2959,"MEAN_ANOMALY":298.2505,"EPHEMERIS_TYPE":0,"CLASSIFICATION_TYPE":"U","NORAD_CAT_ID":40645,"ELEMENT_SET_NO":999,"REV_AT_EPOCH":52945,"BSTAR":0.00028991099,"MEAN_MOTION_DOT":1.23e-6,"MEAN_MOTION_DDOT":0}]
